FLOCK 4Y-15             
1 55068U 23001BM  25068.76183153  .00049943  00000+0  91140-3 0  9991
2 55068  97.3743 138.7750 0007588 286.5563  73.4854 15.49245944121601
FLOCK 4Y-9              
1 55069U 23001BN  25068.69864651  .00266973  00000+0  42502-2 0  9994
2 55069  97.3832 139.1452 0007543 292.2004  67.8448 15.52296463121589
FLOCK 4Y-26             
1 55070U 23001BP  25068.75964555  .00064512  00000+0  11222-2 0  9997
2 55070  97.3873 139.4574 0008470 285.2231  74.8084 15.50537651121611
FLOCK 4Y-8              
1 55071U 23001BQ  25068.74553433  .00104820  00000+0  13493-2 0  9995
2 55071  97.3809 140.9877 0007608 291.8460  68.1986 15.58667118121722
FLOCK 4Y-2              
1 55074U 23001BT  25068.74192289  .00051550  00000+0  97023-3 0  9999
2 55074  97.3810 139.1859 0007251 296.0428  64.0076 15.48355084121597
FLOCK 4Y-21             
1 55077U 23001BW  25068.72875893  .00052910  00000+0  97417-3 0  9997
2 55077  97.3818 139.2920 0007213 293.5400  66.5092 15.48980714121597
FLOCK 4Y-36             
1 55078U 23001BX  25068.73811935  .00081097  00000+0  12748-2 0  9997
2 55078  97.3782 139.8052 0007694 294.2680  65.7769 15.53319417121641
FLOCK 4Y-13             
1 55079U 23001BY  25068.62262318  .00056639  00000+0  10049-2 0  9997
2 55079  97.3797 139.1366 0007051 296.0262  64.0263 15.50023162121582
FLOCK 4Y-23             
1 55080U 23001BZ  25068.75719395  .00081585  00000+0  13022-2 0  9997
2 55080  97.3856 139.6609 0009322 287.4945  72.5289 15.52877305121636
FLOCK 4Y-34             
1 55082U 23001CB  25068.74232897  .00063356  00000+0  11041-2 0  9990
2 55082  97.3789 139.1185 0007870 292.9589  67.0832 15.50496531121604
FLOCK 4Y-27             
1 55083U 23001CC  25068.75531086  .00081548  00000+0  12121-2 0  9997
2 55083  97.3844 140.5314 0007786 288.7662  71.2746 15.54861755121685
FLOCK 4Q-1              
1 58270U 23174Q   25068.75410134  .00023155  00000+0  78952-3 0  9994
2 58270  97.4263 147.8528 0008526  33.3390 326.8386 15.30330542 74173
FLOCK 4Q-16             
1 58271U 23174R   25068.77647106  .00021519  00000+0  74973-3 0  9999
2 58271  97.4226 147.4522 0008842  34.6401 325.5413 15.29640874 74167
FLOCK 4Q-11             
1 58273U 23174T   25068.77436325  .00022746  00000+0  79197-3 0  9996
2 58273  97.4259 147.6265 0008622  35.3901 324.7910 15.29652472 74160
FLOCK 4Q-36             
1 58274U 23174U   25068.77504210  .00025740  00000+0  84130-3 0  9996
2 58274  97.4255 148.2631 0007635  27.1113 333.0526 15.31683508 74206
FLOCK 4Q-12             
1 58275U 23174V   25068.74472588  .00024537  00000+0  79127-3 0  9999
2 58275  97.4223 148.1871 0007414  30.0176 330.1489 15.32127192 74214
FLOCK 4Q-19             
1 58278U 23174Y   25068.74108939  .00189776  00000+0  41113-2 0  9998
2 58278  97.4180 148.4381 0004100 323.8095  36.2875 15.43698444 74230
