[{"OBJECT_NAME":"FLOCK 4Y-15","OBJECT_ID":"2023-001BM","EPOCH":"2025-03-09T18:17:02.244192","MEAN_MOTION":15.49245944,"ECCENTRICITY":0.0007588,"INCLINATION":97.3743,"RA_OF_ASC_NODE":138.775,"ARG_OF_PERICENTER":286.5563,"MEAN_ANOMALY":73.4854,"EPHEMERIS_TYPE":0,"CLASSIFICATION_TYPE":"U","NORAD_CAT_ID":55068,"ELEMENT_SET_NO":999,"REV_AT_EPOCH":12160,"BSTAR":0.0009114,"MEAN_MOTION_DOT":0.00049943,"MEAN_MOTION_DDOT":0},{"OBJECT_NAME":"FLOCK 4Y-9","OBJECT_ID":"2023-001BN","EPOCH":"2025-03-09T16:46:03.058464","MEAN_MOTION":15.52296463,"ECCENTRICITY":0.0007543,"INCLINATION":97.3832,"RA_OF_ASC_NODE":139.1452,"ARG_OF_PERICENTER":292.2004,"MEAN_ANOMALY":67.8448,"EPHEMERIS_TYPE":0,"CLASSIFICATION_TYPE":"U","NORAD_CAT_ID":55069,"ELEMENT_SET_NO":999,"REV_AT_EPOCH":12158,"BSTAR":0.0042502,"MEAN_MOTION_DOT":0.00266973,"MEAN_MOTION_DDOT":0},{"OBJECT_NAME":"FLOCK 4Y-26","OBJECT_ID":"2023-001BP","EPOCH":"2025-03-09T18:13:53.375520","MEAN_MOTION":15.50537651,"ECCENTRICITY":0.000847,"INCLINATION":97.3873,"RA_OF_ASC_NODE":139.4574,"ARG_OF_PERICENTER":285.2231,"MEAN_ANOMALY":74.8084,"EPHEMERIS_TYPE":0,"CLASSIFICATION_TYPE":"U","NORAD_CAT_ID":55070,"ELEMENT_SET_NO":999,"REV_AT_EPOCH":12161,"BSTAR":0.0011222,"MEAN_MOTION_DOT":0.00064512,"MEAN_MOTION_DDOT":0},{"OBJECT_NAME":"FLOCK 4Y-8","OBJECT_ID":"2023-001BQ","EPOCH":"2025-03-09T17:53:34.166112","MEAN_MOTION":15.58667118,"ECCENTRICITY":0.0007608,"INCLINATION":97.3809,"RA_OF_ASC_NODE":140.9877,"ARG_OF_PERICENTER":291.846,"MEAN_ANOMALY":68.1986,"EPHEMERIS_TYPE":0,"CLASSIFICATION_TYPE":"U","NORAD_CAT_ID":55071,"ELEMENT_SET_NO":999,"REV_AT_EPOCH":12172,"BSTAR":0.0013493,"MEAN_MOTION_DOT":0.0010482,"MEAN_MOTION_DDOT":0},{"OBJECT_NAME":"FLOCK 4Y-2","OBJECT_ID":"2023-001BT","EPOCH":"2025-03-09T17:48:22.137696","MEAN_MOTION":15.48355084,"ECCENTRICITY":0.0007251,"INCLINATION":97.381,"RA_OF_ASC_NODE":139.1859,"ARG_OF_PERICENTER":296.0428,"MEAN_ANOMALY":64.0076,"EPHEMERIS_TYPE":0,"CLASSIFICATION_TYPE":"U","NORAD_CAT_ID":55074,"ELEMENT_SET_NO":999,"REV_AT_EPOCH":12159,"BSTAR":0.00097023,"MEAN_MOTION_DOT":0.0005155,"MEAN_MOTION_DDOT":0},{"OBJECT_NAME":"FLOCK 4Y-21","OBJECT_ID":"2023-001BW","EPOCH":"2025-03-09T17:29:24.771552","MEAN_MOTION":15.48980714,"ECCENTRICITY":0.0007213,"INCLINATION":97.3818,"RA_OF_ASC_NODE":139.292,"ARG_OF_PERICENTER":293.54,"MEAN_ANOMALY":66.5092,"EPHEMERIS_TYPE":0,"CLASSIFICATION_TYPE":"U","NORAD_CAT_ID":55077,"ELEMENT_SET_NO":999,"REV_AT_EPOCH":12159,"BSTAR":0.00097417,"MEAN_MOTION_DOT":0.0005291,"MEAN_MOTION_DDOT":0},{"OBJECT_NAME":"FLOCK 4Y-36","OBJECT_ID":"2023-001BX","EPOCH":"2025-03-09T17:42:53.511840","MEAN_MOTION":15.53319417,"ECCENTRICITY":0.0007694,"INCLINATION":97.3782,"RA_OF_ASC_NODE":139.8052,"ARG_OF_PERICENTER":294.268,"MEAN_ANOMALY":65.7769,"EPHEMERIS_TYPE":0,"CLASSIFICATION_TYPE":"U","NORAD_CAT_ID":55078,"ELEMENT_SET_NO":999,"REV_AT_EPOCH":12164,"BSTAR":0.0012748,"MEAN_MOTION_DOT":0.00081097,"MEAN_MOTION_DDOT":0},{"OBJECT_NAME":"FLOCK 4Y-13","OBJECT_ID":"2023-001BY","EPOCH":"2025-03-09T14:56:34.642752","MEAN_MOTION":15.50023162,"ECCENTRICITY":0.0007051,"INCLINATION":97.3797,"RA_OF_ASC_NODE":139.1366,"ARG_OF_PERICENTER":296.0262,"MEAN_ANOMALY":64.0263,"EPHEMERIS_TYPE":0,"CLASSIFICATION_TYPE":"U","NORAD_CAT_ID":55079,"ELEMENT_SET_NO":999,"REV_AT_EPOCH":12158,"BSTAR":0.0010049,"MEAN_MOTION_DOT":0.00056639,"MEAN_MOTION_DDOT":0},{"OBJECT_NAME":"FLOCK 4Y-23","OBJECT_ID":"2023-001BZ","EPOCH":"2025-03-09T18:10:21.557280","MEAN_MOTION":15.52877305,"ECCENTRICITY":0.0009322,"INCLINATION":97.3856,"RA_OF_ASC_NODE":139.6609,"ARG_OF_PERICENTER":287.4945,"MEAN_ANOMALY":72.5289,"EPHEMERIS_TYPE":0,"CLASSIFICATION_TYPE":"U","NORAD_CAT_ID":55080,"ELEMENT_SET_NO":999,"REV_AT_EPOCH":12163,"BSTAR":0.0013022,"MEAN_MOTION_DOT":0.00081585,"MEAN_MOTION_DDOT":0},{"OBJECT_NAME":"FLOCK 4Y-34","OBJECT_ID":"2023-001CB","EPOCH":"2025-03-09T17:48:57.223008","MEAN_MOTION":15.50496531,"ECCENTRICITY":0.000787,"INCLINATION":97.3789,"RA_OF_ASC_NODE":139.1185,"ARG_OF_PERICENTER":292.9589,"MEAN_ANOMALY":67.0832,"EPHEMERIS_TYPE":0,"CLASSIFICATION_TYPE":"U","NORAD_CAT_ID":55082,"ELEMENT_SET_NO":999,"REV_AT_EPOCH":12160,"BSTAR":0.0011041,"MEAN_MOTION_DOT":0.00063356,"MEAN_MOTION_DDOT":0},{"OBJECT_NAME":"FLOCK 4Y-27","OBJECT_ID":"2023-001CC","EPOCH":"2025-03-09T18:07:38.858304","MEAN_MOTION":15.54861755,"ECCENTRICITY":0.0007786,"INCLINATION":97.3844,"RA_OF_ASC_NODE":140.5314,"ARG_OF_PERICENTER":288.7662,"MEAN_ANOMALY":71.2746,"EPHEMERIS_TYPE":0,"CLASSIFICATION_TYPE":"U","NORAD_CAT_ID":55083,"ELEMENT_SET_NO":999,"REV_AT_EPOCH":12168,"BSTAR":0.0012121,"MEAN_MOTION_DOT":0.00081548,"MEAN_MOTION_DDOT":0},{"OBJECT_NAME":"FLOCK 4Q-1","OBJECT_ID":"2023-174Q","EPOCH":"2025-03-09T18:05:54.355776","MEAN_MOTION":15.30330542,"ECCENTRICITY":0.0008526,"INCLINATION":97.4263,"RA_OF_ASC_NODE":147.8528,"ARG_OF_PERICENTER":33.339,"MEAN_ANOMALY":326.8386,"EPHEMERIS_TYPE":0,"CLASSIFICATION_TYPE":"U","NORAD_CAT_ID":58270,"ELEMENT_SET_NO":999,"REV_AT_EPOCH":7417,"BSTAR":0.00078952,"MEAN_MOTION_DOT":0.00023155,"MEAN_MOTION_DDOT":0},{"OBJECT_NAME":"FLOCK 4Q-16","OBJECT_ID":"2023-174R","EPOCH":"2025-03-09T18:38:07.099584","MEAN_MOTION":15.29640874,"ECCENTRICITY":0.0008842,"INCLINATION":97.4226,"RA_OF_ASC_NODE":147.4522,"ARG_OF_PERICENTER":34.6401,"MEAN_ANOMALY":325.5413,"EPHEMERIS_TYPE":0,"CLASSIFICATION_TYPE":"U","NORAD_CAT_ID":58271,"ELEMENT_SET_NO":999,"REV_AT_EPOCH":7416,"BSTAR":0.00074973,"MEAN_MOTION_DOT":0.00021519,"MEAN_MOTION_DDOT":0},{"OBJECT_NAME":"FLOCK 4Q-11","OBJECT_ID":"2023-174T","EPOCH":"2025-03-09T18:35:04.984800","MEAN_MOTION":15.29652472,"ECCENTRICITY":0.0008622,"INCLINATION":97.4259,"RA_OF_ASC_NODE":147.6265,"ARG_OF_PERICENTER":35.3901,"MEAN_ANOMALY":324.791,"EPHEMERIS_TYPE":0,"CLASSIFICATION_TYPE":"U","NORAD_CAT_ID":58273,"ELEMENT_SET_NO":999,"REV_AT_EPOCH":7416,"BSTAR":0.00079197,"MEAN_MOTION_DOT":0.00022746,"MEAN_MOTION_DDOT":0},{"OBJECT_NAME":"FLOCK 4Q-36","OBJECT_ID":"2023-174U","EPOCH":"2025-03-09T18:36:03.637440","MEAN_MOTION":15.31683508,"ECCENTRICITY":0.0007635,"INCLINATION":97.4255,"RA_OF_ASC_NODE":148.2631,"ARG_OF_PERICENTER":27.1113,"MEAN_ANOMALY":333.0526,"EPHEMERIS_TYPE":0,"CLASSIFICATION_TYPE":"U","NORAD_CAT_ID":58274,"ELEMENT_SET_NO":999,"REV_AT_EPOCH":7420,"BSTAR":0.0008413,"MEAN_MOTION_DOT":0.0002574,"MEAN_MOTION_DDOT":0},{"OBJECT_NAME":"FLOCK 4Q-12","OBJECT_ID":"2023-174V","EPOCH":"2025-03-09T17:52:24.316032","MEAN_MOTION":15.32127192,"ECCENTRICITY":0.0007414,"INCLINATION":97.4223,"RA_OF_ASC_NODE":148.1871,"ARG_OF_PERICENTER":30.0176,"MEAN_ANOMALY":330.1489,"EPHEMERIS_TYPE":0,"CLASSIFICATION_TYPE":"U","NORAD_CAT_ID":58275,"ELEMENT_SET_NO":999,"REV_AT_EPOCH":7421,"BSTAR":0.00079127,"MEAN_MOTION_DOT":0.00024537,"MEAN_MOTION_DDOT":0},{"OBJECT_NAME":"FLOCK 4Q-19","OBJECT_ID":"2023-174Y","EPOCH":"2025-03-09T17:47:10.123296","MEAN_MOTION":15.43698444,"ECCENTRICITY":0.00041,"INCLINATION":97.418,"RA_OF_ASC_NODE":148.4381,"ARG_OF_PERICENTER":323.8095,"MEAN_ANOMALY":36.2875,"EPHEMERIS_TYPE":0,"CLASSIFICATION_TYPE":"U","NORAD_CAT_ID":58278,"ELEMENT_SET_NO":999,"REV_AT_EPOCH":7423,"BSTAR":0.0041113,"MEAN_MOTION_DOT":0.00189776,"MEAN_MOTION_DDOT":0}]
